{"spkid": "20001620", "covariance": {"data": [["8.397181567721829E-19", "-1.063171868576962E-18", "-7.316091980707022E-17", "5.904553531398655E-18", "-5.740193819679995E-17", "8.694580214420114E-18", "-3.326168701880857E-27"], ["-1.063171868576962E-18", "1.352741066880886E-18", "8.740467926377093E-17", "-6.784147528404308E-18", "6.995678556548454E-17", "-1.05011975467921E-17", "2.274736912369719E-26"], ["-7.316091980707022E-17", "8.740467926377093E-17", "5.465973315320279E-14", "8.739352229672593E-15", "1.529633173988869E-14", "-1.12631546857653E-15", "-1.389561504069196E-23"], ["5.904553531398655E-18", "-6.784147528404308E-18", "8.739352229672593E-15", "3.808315638135241E-14", "-3.624643375887E-14", "-1.150575916075381E-15", "-5.178249782562665E-25"], ["-5.740193819679995E-17", "6.995678556548454E-17", "1.529633173988869E-14", "-3.624643375887E-14", "4.954770867923189E-14", "8.088504201260984E-16", "-2.961905541873147E-24"], ["8.694580214420114E-18", "-1.05011975467921E-17", "-1.12631546857653E-15", "-1.150575916075381E-15", "8.088504201260984E-16", "1.713568827257789E-15", "1.610297747989414E-24"], ["-3.326168701880857E-27", "2.274736912369719E-26", "-1.389561504069196E-23", "-5.178249782562665E-25", "-2.961905541873147E-24", "1.610297747989414E-24", "5.839329382760367E-32"]], "elements": [{"title": "eccentricity", "value": ".3354110491591213", "units": null, "sigma": 9.16361368005103e-10, "name": "e", "label": "e"}, {"name": "q", "sigma": 1.16307397309066e-09, "units": "au", "value": ".8276530250656353", "title": "perihelion distance", "label": "q"}, {"units": "TDB", "value": "2457653.633936826891", "title": "time of perihelion passage", "name": "tp", "sigma": 2.33794211119956e-07, "label": "tp"}, {"title": "longitude of the ascending node", "value": "337.21608216011", "units": "deg", "sigma": 1.95149061953555e-07, "name": "om", "label": "node"}, {"label": "peri", "sigma": 2.22593146074249e-07, "name": "w", "units": "deg", "value": "276.8747254651404", "title": "argument of perihelion"}, {"sigma": 4.13952754219342e-08, "name": "i", "title": "inclination", "value": "13.33769068707374", "units": "deg", "label": "i"}], "labels": ["e", "q", "tp", "node", "peri", "i", "A2"], "epoch": "2457508.5"}, "elements": [{"name": "e", "sigma": "9.1647E-10", "units": null, "title": "eccentricity", "value": ".3355177775810924", "label": "e"}, {"label": "a", "name": "a", "sigma": "2.1677E-10", "value": "1.245803622710455", "title": "semi-major axis", "units": "au"}, {"label": "q", "value": ".8278143599161694", "title": "perihelion distance", "units": "au", "sigma": "1.1655E-9", "name": "q"}, {"units": "deg", "title": "inclination; angle with respect to x-y ecliptic plane", "value": "13.33675505977734", "name": "i", "sigma": "4.1399E-8", "label": "i"}, {"title": "longitude of the ascending node", "value": "337.13486631", "units": "deg", "name": "om", "sigma": "1.9515E-7", "label": "node"}, {"units": "deg", "title": "argument of perihelion", "value": "277.0290683593075", "name": "w", "sigma": "2.2247E-7", "label": "peri"}, {"label": "M", "units": "deg", "title": "mean anomaly", "value": "354.6795027181432", "sigma": "5.1347E-7", "name": "ma"}, {"label": "tp", "sigma": "7.2626E-7", "name": "tp", "units": "TDB", "title": "time of perihelion passage", "value": "2461208.006241551152"}, {"title": "sidereal orbital period", "value": "507.8936827257544", "units": "d", "sigma": "1.3256E-7", "name": "per", "label": "period"}, {"label": "n", "name": "n", "sigma": "1.85E-10", "title": "mean motion", "value": ".7088097612633388", "units": "deg/d"}, {"label": "Q", "name": "ad", "sigma": "2.895E-10", "units": "au", "title": "aphelion distance", "value": "1.663792885504741"}], "epoch": "2461200.5"}